{
  "type": "FeatureCollection",
  "features": [
    {
      "type": "Feature",
      "properties": {
        "norad_id": 41890,
        "name": "CYGFM07",
        "group": "weather",
        "lat": -34.73508933973238,
        "lon": -134.77146013950386,
        "alt_km": 411.81412844294937,
        "timestamp": "2025-12-21T18:54:58.135865+00:00",
        "meta_object_name": "CYGFM07",
        "meta_object_id": "2016-078G",
        "meta_epoch": "2025-12-21T14:41:24.584640",
        "meta_mean_motion": 15.50351743,
        "meta_eccentricity": 0.0009938,
        "meta_inclination": 34.9486,
        "meta_ra_of_asc_node": 323.2662,
        "meta_arg_of_pericenter": 290.6458,
        "meta_mean_anomaly": 69.3199,
        "meta_ephemeris_type": 0,
        "meta_classification_type": "U",
        "meta_norad_cat_id": 41890,
        "meta_element_set_no": 999,
        "meta_rev_at_epoch": 50133,
        "meta_bstar": 0.00032940124,
        "meta_mean_motion_dot": 0.00019319,
        "meta_mean_motion_ddot": 0,
        "tle_line1": "1 41890U 16078G   25355.61209010  .00019319  00000+0  32940-3 0  9996",
        "tle_line2": "2 41890  34.9486 323.2662 0009938 290.6458  69.3199 15.50351743501338"
      },
      "geometry": {
        "type": "Point",
        "coordinates": [
          -134.77146013950386,
          -34.73508933973238
        ]
      }
    },
    {
      "type": "Feature",
      "properties": {
        "norad_id": 41891,
        "name": "CYGFM03",
        "group": "weather",
        "lat": 34.72068293676014,
        "lon": 61.08618920958601,
        "alt_km": 416.10280211399913,
        "timestamp": "2025-12-21T18:54:58.135884+00:00",
        "meta_object_name": "CYGFM03",
        "meta_object_id": "2016-078H",
        "meta_epoch": "2025-12-21T07:41:09.975840",
        "meta_mean_motion": 15.50235912,
        "meta_eccentricity": 0.00096618,
        "meta_inclination": 34.9438,
        "meta_ra_of_asc_node": 327.1045,
        "meta_arg_of_pericenter": 275.8408,
        "meta_mean_anomaly": 84.1213,
        "meta_ephemeris_type": 0,
        "meta_classification_type": "U",
        "meta_norad_cat_id": 41891,
        "meta_element_set_no": 999,
        "meta_rev_at_epoch": 50126,
        "meta_bstar": 0.00032821183,
        "meta_mean_motion_dot": 0.00019168,
        "meta_mean_motion_ddot": 0,
        "tle_line1": "1 41891U 16078H   25355.32025435  .00019168  00000+0  32821-3 0  9992",
        "tle_line2": "2 41891  34.9438 327.1045 0009661 275.8408  84.1213 15.50235912501260"
      },
      "geometry": {
        "type": "Point",
        "coordinates": [
          61.08618920958601,
          34.72068293676014
        ]
      }
    },
    {
      "type": "Feature",
      "properties": {
        "norad_id": 43010,
        "name": "FENGYUN 3D",
        "group": "weather",
        "lat": 32.36593577093472,
        "lon": 147.9918956015233,
        "alt_km": 823.4453148227503,
        "timestamp": "2025-12-21T18:54:58.135895+00:00",
        "meta_object_name": "FENGYUN 3D",
        "meta_object_id": "2017-072A",
        "meta_epoch": "2025-12-21T14:50:33.767232",
        "meta_mean_motion": 14.19686041,
        "meta_eccentricity": 0.00013953,
        "meta_inclination": 98.9899,
        "meta_ra_of_asc_node": 322.0614,
        "meta_arg_of_pericenter": 155.7059,
        "meta_mean_anomaly": 204.4183,
        "meta_ephemeris_type": 0,
        "meta_classification_type": "U",
        "meta_norad_cat_id": 43010,
        "meta_element_set_no": 999,
        "meta_rev_at_epoch": 41979,
        "meta_bstar": 5.9434011e-05,
        "meta_mean_motion_dot": 8e-07,
        "meta_mean_motion_ddot": 0,
        "tle_line1": "1 43010U 17072A   25355.61844638  .00000080  00000+0  59434-4 0  9991",
        "tle_line2": "2 43010  98.9899 322.0614 0001395 155.7059 204.4183 14.19686041419792"
      },
      "geometry": {
        "type": "Point",
        "coordinates": [
          147.9918956015233,
          32.36593577093472
        ]
      }
    },
    {
      "type": "Feature",
      "properties": {
        "norad_id": 43013,
        "name": "NOAA 20 (JPSS-1)",
        "group": "weather",
        "lat": -64.51443101389405,
        "lon": -49.13748149759404,
        "alt_km": 835.3018538060041,
        "timestamp": "2025-12-21T18:54:58.135907+00:00",
        "meta_object_name": "NOAA 20 (JPSS-1)",
        "meta_object_id": "2017-073A",
        "meta_epoch": "2025-12-21T14:09:05.565600",
        "meta_mean_motion": 14.1952789,
        "meta_eccentricity": 0.00021221,
        "meta_inclination": 98.7612,
        "meta_ra_of_asc_node": 291.79,
        "meta_arg_of_pericenter": 74.5845,
        "meta_mean_anomaly": 285.5565,
        "meta_ephemeris_type": 0,
        "meta_classification_type": "U",
        "meta_norad_cat_id": 43013,
        "meta_element_set_no": 999,
        "meta_rev_at_epoch": 41927,
        "meta_bstar": 5.3527727e-05,
        "meta_mean_motion_dot": 6.9e-07,
        "meta_mean_motion_ddot": 0,
        "tle_line1": "1 43013U 17073A   25355.58964775  .00000069  00000+0  53528-4 0  9991",
        "tle_line2": "2 43013  98.7612 291.7900 0002122  74.5845 285.5565 14.19527890419279"
      },
      "geometry": {
        "type": "Point",
        "coordinates": [
          -49.13748149759404,
          -64.51443101389405
        ]
      }
    },
    {
      "type": "Feature",
      "properties": {
        "norad_id": 43226,
        "name": "GOES 17",
        "group": "weather",
        "lat": -0.15570329445869238,
        "lon": -75.17094967172555,
        "alt_km": 35773.363085550896,
        "timestamp": "2025-12-21T18:54:58.135920+00:00",
        "meta_object_name": "GOES 17",
        "meta_object_id": "2018-022A",
        "meta_epoch": "2025-12-21T11:03:34.162848",
        "meta_mean_motion": 1.0027043,
        "meta_eccentricity": 0.0003109,
        "meta_inclination": 0.4788,
        "meta_ra_of_asc_node": 89.1269,
        "meta_arg_of_pericenter": 191.6701,
        "meta_mean_anomaly": 245.8663,
        "meta_ephemeris_type": 0,
        "meta_classification_type": "U",
        "meta_norad_cat_id": 43226,
        "meta_element_set_no": 999,
        "meta_rev_at_epoch": 2864,
        "meta_bstar": 0,
        "meta_mean_motion_dot": -1.6e-06,
        "meta_mean_motion_ddot": 0,
        "tle_line1": "1 43226U 18022A   25355.46081207 -.00000160  00000+0  00000+0 0  9994",
        "tle_line2": "2 43226   0.4788  89.1269 0003109 191.6701 245.8663  1.00270430 28640"
      },
      "geometry": {
        "type": "Point",
        "coordinates": [
          -75.17094967172555,
          -0.15570329445869238
        ]
      }
    },
    {
      "type": "Feature",
      "properties": {
        "norad_id": 43491,
        "name": "FENGYUN 2H",
        "group": "weather",
        "lat": 0.580371265605543,
        "lon": 93.66360195416685,
        "alt_km": 35795.18809928005,
        "timestamp": "2025-12-21T18:54:58.135933+00:00",
        "meta_object_name": "FENGYUN 2H",
        "meta_object_id": "2018-050A",
        "meta_epoch": "2025-12-21T13:34:30.584064",
        "meta_mean_motion": 1.0027113,
        "meta_eccentricity": 0.00023695,
        "meta_inclination": 2.5724,
        "meta_ra_of_asc_node": 81.2369,
        "meta_arg_of_pericenter": 165.9334,
        "meta_mean_anomaly": 126.1899,
        "meta_ephemeris_type": 0,
        "meta_classification_type": "U",
        "meta_norad_cat_id": 43491,
        "meta_element_set_no": 999,
        "meta_rev_at_epoch": 2765,
        "meta_bstar": 0,
        "meta_mean_motion_dot": -1.09e-06,
        "meta_mean_motion_ddot": 0,
        "tle_line1": "1 43491U 18050A   25355.56563176 -.00000109  00000+0  00000+0 0  9993",
        "tle_line2": "2 43491   2.5724  81.2369 0002369 165.9334 126.1899  1.00271130 27654"
      },
      "geometry": {
        "type": "Point",
        "coordinates": [
          93.66360195416685,
          0.580371265605543
        ]
      }
    },
    {
      "type": "Feature",
      "properties": {
        "norad_id": 43689,
        "name": "METOP-C",
        "group": "weather",
        "lat": 40.54932154918039,
        "lon": -119.06122789537582,
        "alt_km": 817.3464455480598,
        "timestamp": "2025-12-21T18:54:58.135945+00:00",
        "meta_object_name": "METOP-C",
        "meta_object_id": "2018-087A",
        "meta_epoch": "2025-12-21T14:53:12.479712",
        "meta_mean_motion": 14.21487599,
        "meta_eccentricity": 8.198e-05,
        "meta_inclination": 98.6916,
        "meta_ra_of_asc_node": 53.2533,
        "meta_arg_of_pericenter": 23.3949,
        "meta_mean_anomaly": 336.7265,
        "meta_ephemeris_type": 0,
        "meta_classification_type": "U",
        "meta_norad_cat_id": 43689,
        "meta_element_set_no": 999,
        "meta_rev_at_epoch": 36960,
        "meta_bstar": 7.5060282e-05,
        "meta_mean_motion_dot": 1.21e-06,
        "meta_mean_motion_ddot": 0,
        "tle_line1": "1 43689U 18087A   25355.62028333  .00000121  00000+0  75060-4 0  9996",
        "tle_line2": "2 43689  98.6916  53.2533 0000819  23.3949 336.7265 14.21487599369606"
      },
      "geometry": {
        "type": "Point",
        "coordinates": [
          -119.06122789537582,
          40.54932154918039
        ]
      }
    }
  ]
}